; ME306 CoreXY plotter -- cross-hatch shaded banana
; Single continuous stroke: no pen lift, every move draws.
; Shading is line density from four hatch layers at four angles.
; X/Y are relative integers; F is clamped to 1200.
G28
G1 X0 Y93 F1200
G1 X45 Y0
G1 X3 Y-1
G1 X3 Y-2
G1 X2 Y-1
G1 X3 Y-2
G1 X2 Y-1
G1 X3 Y-2
G1 X2 Y-1
G1 X2 Y-1
G1 X3 Y-1
G1 X2 Y-2
G1 X3 Y-1
G1 X2 Y-1
G1 X2 Y0
G1 X3 Y-1
G1 X2 Y-1
G1 X3 Y-1
G1 X2 Y0
G1 X3 Y-1
G1 X2 Y0
G1 X3 Y0
G1 X2 Y-1
G1 X3 Y0
G1 X2 Y0
G1 X3 Y0
G1 X3 Y0
G1 X2 Y0
G1 X3 Y0
G1 X2 Y1
G1 X3 Y0
G1 X2 Y0
G1 X3 Y1
G1 X2 Y0
G1 X3 Y1
G1 X2 Y1
G1 X3 Y1
G1 X2 Y0
G1 X2 Y1
G1 X3 Y1
G1 X2 Y2
G1 X3 Y1
G1 X2 Y1
G1 X2 Y1
G1 X3 Y2
G1 X2 Y1
G1 X3 Y2
G1 X2 Y1
G1 X3 Y2
G1 X3 Y1
G1 X3 Y-2
G1 X0 Y-4
G1 X-1 Y-3
G1 X-2 Y-3
G1 X-2 Y-3
G1 X-1 Y-2
G1 X-3 Y-3
G1 X-2 Y-3
G1 X-2 Y-2
G1 X-3 Y-2
G1 X-2 Y-3
G1 X-3 Y-2
G1 X-3 Y-2
G1 X-3 Y-1
G1 X-3 Y-2
G1 X-3 Y-1
G1 X-3 Y-2
G1 X-3 Y-1
G1 X-3 Y-1
G1 X-4 Y-1
G1 X-3 Y-1
G1 X-4 Y0
G1 X-3 Y-1
G1 X-4 Y0
G1 X-3 Y0
G1 X-3 Y0
G1 X-4 Y0
G1 X-3 Y1
G1 X-4 Y0
G1 X-3 Y1
G1 X-4 Y1
G1 X-3 Y1
G1 X-3 Y1
G1 X-3 Y2
G1 X-3 Y1
G1 X-3 Y2
G1 X-3 Y1
G1 X-3 Y2
G1 X-3 Y2
G1 X-2 Y3
G1 X-3 Y2
G1 X-2 Y2
G1 X-2 Y3
G1 X-3 Y3
G1 X-1 Y2
G1 X-2 Y3
G1 X-2 Y3
G1 X-1 Y3
G1 X0 Y4
G1 X4 Y2
G1 X-4 Y-4
G1 X1 Y-4
G1 X6 Y6
G1 X3 Y-2
G1 X-7 Y-7
G1 X2 Y-4
G1 X8 Y9
G1 X3 Y-2
G1 X-9 Y-9
G1 X2 Y-3
G1 X10 Y10
G1 X4 Y-1
G1 X-12 Y-12
G1 X11 Y6
G1 X4 Y4
G1 X-12 Y-12
G1 X7 Y7
G1 X8 Y3
G1 X-3 Y-3
G1 X-3 Y-3
G1 X-7 Y-7
G1 X0 Y1
G1 X-3 Y2
G1 X-2 Y2
G1 X-2 Y3
G1 X-3 Y3
G1 X-1 Y2
G1 X-2 Y3
G1 X-2 Y3
G1 X-1 Y3
G1 X0 Y4
G1 X3 Y2
G1 X3 Y-1
G1 X3 Y-2
G1 X2 Y-1
G1 X3 Y-2
G1 X2 Y-1
G1 X3 Y-2
G1 X2 Y-1
G1 X2 Y-1
G1 X3 Y-1
G1 X2 Y-2
G1 X3 Y-1
G1 X-1 Y-3
G1 X3 Y2
G1 X-2 Y1
G1 X-3 Y1
G1 X-2 Y2
G1 X-3 Y1
G1 X-2 Y1
G1 X-2 Y1
G1 X-3 Y2
G1 X-2 Y1
G1 X-3 Y2
G1 X-2 Y1
G1 X-3 Y2
G1 X-3 Y1
G1 X-3 Y-2
G1 X0 Y-4
G1 X1 Y-3
G1 X2 Y-3
G1 X2 Y-3
G1 X1 Y-2
G1 X3 Y-3
G1 X2 Y-3
G1 X2 Y-2
G1 X3 Y-2
G1 X2 Y-3
G1 X1 Y0
G1 X7 Y7
G1 X5 Y8
G1 X2 Y-1
G1 X2 Y0
G1 X3 Y-1
G1 X-1 Y0
G1 X-3 Y-3
G1 X-5 Y-4
G1 X-7 Y-8
G1 X-1 Y0
G1 X-3 Y2
G1 X-2 Y3
G1 X-3 Y2
G1 X-2 Y2
G1 X-2 Y3
G1 X-3 Y3
G1 X-1 Y2
G1 X-2 Y3
G1 X-2 Y3
G1 X-1 Y3
G1 X0 Y4
G1 X3 Y2
G1 X3 Y-1
G1 X3 Y-2
G1 X2 Y-1
G1 X3 Y-2
G1 X2 Y-1
G1 X3 Y-2
G1 X2 Y-1
G1 X2 Y-1
G1 X3 Y-1
G1 X2 Y-2
G1 X3 Y-1
G1 X2 Y-1
G1 X2 Y0
G1 X3 Y-1
G1 X2 Y-1
G1 X-1 Y-2
G1 X2 Y2
G1 X-1 Y0
G1 X-2 Y1
G1 X-3 Y1
G1 X-2 Y0
G1 X-2 Y1
G1 X-3 Y1
G1 X-2 Y2
G1 X-3 Y1
G1 X-2 Y1
G1 X-2 Y1
G1 X-3 Y2
G1 X-2 Y1
G1 X-3 Y2
G1 X-2 Y1
G1 X-3 Y2
G1 X-3 Y1
G1 X-3 Y-2
G1 X0 Y-4
G1 X1 Y-3
G1 X2 Y-3
G1 X2 Y-3
G1 X1 Y-2
G1 X3 Y-3
G1 X2 Y-3
G1 X2 Y-2
G1 X3 Y-2
G1 X2 Y-3
G1 X3 Y-2
G1 X3 Y-2
G1 X1 Y0
G1 X8 Y8
G1 X3 Y-2
G1 X-8 Y-8
G1 X3 Y-2
G1 X9 Y9
G1 X4 Y-1
G1 X-9 Y-9
G1 X3 Y-1
G1 X10 Y9
G1 X4 Y-1
G1 X-10 Y-10
G1 X4 Y-1
G1 X10 Y11
G1 X5 Y-1
G1 X-11 Y-11
G1 X4 Y0
G1 X12 Y11
G1 X5 Y1
G1 X-12 Y-13
G1 X4 Y0
G1 X14 Y13
G1 X6 Y2
G1 X-14 Y-15
G1 X5 Y1
G1 X17 Y17
G1 X-3 Y10
G1 X3 Y1
G1 X2 Y0
G1 X2 Y1
G1 X3 Y1
G1 X2 Y2
G1 X3 Y1
G1 X2 Y1
G1 X2 Y1
G1 X3 Y2
G1 X2 Y1
G1 X3 Y2
G1 X2 Y1
G1 X3 Y2
G1 X3 Y1
G1 X-3 Y-4
G1 X0 Y3
G1 X-3 Y-2
G1 X-2 Y-1
G1 X-3 Y-2
G1 X-2 Y-1
G1 X-3 Y-2
G1 X-2 Y-1
G1 X-2 Y-1
G1 X-3 Y-1
G1 X-2 Y-2
G1 X2 Y-9
G1 X-20 Y-20
G1 X7 Y2
G1 X39 Y39
G1 X-1 Y-6
G1 X-29 Y-29
G1 X30 Y33
G1 X-4 Y4
G1 X0 Y-5
G1 X3 Y-3
G1 X-2 Y-3
G1 X-2 Y2
G1 X-2 Y-3
G1 X2 Y-3
G1 X-2 Y-2
G1 X-3 Y3
G1 X-2 Y-3
G1 X3 Y-3
G1 X-2 Y-3
G1 X-4 Y4
G1 X-3 Y-2
G1 X4 Y-4
G1 X-2 Y-3
G1 X-5 Y5
G1 X-2 Y-3
G1 X4 Y-4
G1 X-3 Y-2
G1 X-5 Y5
G1 X-3 Y-2
G1 X5 Y-5
G1 X-3 Y-2
G1 X-5 Y5
G1 X-3 Y-1
G1 X5 Y-6
G1 X-4 Y-1
G1 X-5 Y6
G1 X-4 Y-2
G1 X6 Y-5
G1 X-4 Y-2
G1 X-6 Y6
G1 X-4 Y0
G1 X6 Y-7
G1 X-4 Y-1
G1 X-6 Y7
G1 X-5 Y-1
G1 X7 Y-6
G1 X-5 Y-1
G1 X-7 Y7
G1 X-5 Y1
G1 X8 Y-8
G1 X-6 Y0
G1 X-7 Y8
G1 X-6 Y1
G1 X8 Y-8
G1 X-6 Y1
G1 X-9 Y9
G1 X-9 Y4
G1 X11 Y-11
G1 X-9 Y4
G1 X-14 Y14
G1 X-12 Y17
G1 X-4 Y4
G1 X3 Y2
G1 X3 Y-4
G1 X-5 Y3
G1 X6 Y0
G1 X-4 Y-4
G1 X-3 Y0
G1 X48 Y-38
G1 X29 Y0
G1 X11 Y2
G1 X-50 Y0
G1 X-7 Y4
G1 X10 Y0
G1 X38 Y0
G1 X16 Y0
G1 X-63 Y2
G1 X-7 Y0
G1 X75 Y0
G1 X-11 Y0
G1 X6 Y4
G1 X10 Y0
G1 X4 Y2
G1 X-8 Y0
G1 X4 Y4
G1 X7 Y0
G1 X3 Y2
G1 X-6 Y0
G1 X4 Y4
G1 X5 Y0
G1 X2 Y2
G1 X-4 Y0
G1 X2 Y4
G1 X4 Y0
G1 X1 Y2
G1 X-2 Y0
G1 X1 Y4
G1 X3 Y0
G1 X1 Y2
G1 X-4 Y0
G1 X-1 Y4
G1 X4 Y0
G1 X1 Y-4
G1 X0 Y2
G1 X-3 Y3
G1 X0 Y-5
G1 X-6 Y-16
G1 X0 Y4
G1 X-3 Y-3
G1 X0 Y-4
G1 X-3 Y-3
G1 X0 Y4
G1 X-3 Y-2
G1 X0 Y-4
G1 X-3 Y-3
G1 X0 Y4
G1 X-3 Y-2
G1 X0 Y-4
G1 X-3 Y-1
G1 X0 Y3
G1 X-3 Y-1
G1 X0 Y-4
G1 X-3 Y-2
G1 X0 Y4
G1 X-3 Y-1
G1 X0 Y-4
G1 X-3 Y-1
G1 X0 Y4
G1 X-3 Y-1
G1 X0 Y-4
G1 X-3 Y-1
G1 X0 Y4
G1 X-3 Y-1
G1 X0 Y-3
G1 X-3 Y-1
G1 X0 Y3
G1 X-3 Y0
G1 X0 Y-3
G1 X-3 Y-1
G1 X0 Y4
G1 X-3 Y-1
G1 X0 Y-3
G1 X-3 Y0
G1 X0 Y3
G1 X-3 Y0
G1 X0 Y-3
G1 X-3 Y0
G1 X0 Y3
G1 X-3 Y0
G1 X0 Y-2
G1 X-3 Y0
G1 X0 Y3
G1 X-3 Y0
G1 X0 Y-2
G1 X-3 Y0
G1 X0 Y3
G1 X-3 Y0
G1 X0 Y-2
G1 X-3 Y1
G1 X0 Y2
G1 X-36 Y35
G1 X0 Y4
G1 X-3 Y-3
G1 X0 Y-2
