; ME306 CoreXY plotter -- cross-hatch shaded sphere
; Single continuous stroke: no pen lift, every move draws.
; Shading is line density from four hatch layers at four angles.
; X/Y are relative integers; F is clamped to 1200.
G28
G1 X0 Y70 F1200
G1 X50 Y0
G1 X1 Y-10
G1 X2 Y-9
G1 X4 Y-8
G1 X6 Y-8
G1 X7 Y-7
G1 X7 Y-6
G1 X9 Y-4
G1 X9 Y-2
G1 X10 Y-1
G1 X10 Y1
G1 X9 Y2
G1 X8 Y4
G1 X8 Y6
G1 X7 Y7
G1 X6 Y7
G1 X4 Y9
G1 X2 Y9
G1 X1 Y10
G1 X-1 Y10
G1 X-2 Y9
G1 X-4 Y9
G1 X-6 Y7
G1 X-7 Y7
G1 X-7 Y6
G1 X-9 Y4
G1 X-9 Y2
G1 X-10 Y1
G1 X-10 Y-1
G1 X-9 Y-2
G1 X-8 Y-4
G1 X-8 Y-6
G1 X-7 Y-7
G1 X-6 Y-8
G1 X-4 Y-8
G1 X-2 Y-9
G1 X-1 Y-10
G1 X1 Y2
G1 X2 Y3
G1 X2 Y-4
G1 X-4 Y-4
G1 X60 Y54
G1 X2 Y3
G1 X-62 Y-62
G1 X6 Y6
G1 X61 Y55
G1 X-4 Y-4
G1 X-54 Y-54
G1 X-8 Y-8
G1 X65 Y59
G1 X5 Y5
G1 X-68 Y-68
G1 X9 Y9
G1 X64 Y58
G1 X-8 Y-7
G1 X-51 Y-52
G1 X-13 Y-13
G1 X66 Y61
G1 X9 Y9
G1 X-73 Y-73
G1 X15 Y15
G1 X62 Y56
G1 X-12 Y-12
G1 X-44 Y-44
G1 X-19 Y-19
G1 X62 Y57
G1 X16 Y15
G1 X-75 Y-75
G1 X22 Y23
G1 X56 Y50
G1 X-21 Y-22
G1 X-26 Y-25
G1 X-29 Y-29
G1 X2 Y-4
G1 X78 Y78
G1 X2 Y-4
G1 X-76 Y-76
G1 X3 Y-2
G1 X75 Y75
G1 X3 Y-3
G1 X-75 Y-75
G1 X4 Y-2
G1 X73 Y73
G1 X2 Y-3
G1 X-72 Y-72
G1 X5 Y-1
G1 X68 Y68
G1 X2 Y-4
G1 X-66 Y-66
G1 X5 Y-1
G1 X62 Y62
G1 X0 Y-5
G1 X-57 Y-57
G1 X5 Y0
G1 X52 Y52
G1 X0 Y-6
G1 X-46 Y-46
G1 X8 Y2
G1 X36 Y36
G1 X-4 Y-9
G1 X-23 Y-23
G1 X23 Y73
G1 X-23 Y23
G1 X7 Y-12
G1 X20 Y-20
G1 X2 Y-8
G1 X-21 Y21
G1 X0 Y-6
G1 X21 Y-21
G1 X0 Y-5
G1 X-21 Y21
G1 X-2 Y-4
G1 X23 Y-22
G1 X-1 Y-5
G1 X-24 Y23
G1 X-1 Y-4
G1 X23 Y-23
G1 X-1 Y-5
G1 X-25 Y25
G1 X-2 Y-4
G1 X25 Y-24
G1 X-2 Y-4
G1 X-25 Y25
G1 X-3 Y-3
G1 X25 Y-25
G1 X-2 Y-3
G1 X-26 Y25
G1 X-3 Y-2
G1 X27 Y-27
G1 X-4 Y-2
G1 X-26 Y26
G1 X-3 Y-2
G1 X26 Y-26
G1 X-3 Y-3
G1 X-27 Y27
G1 X-3 Y-3
G1 X26 Y-26
G1 X-3 Y-2
G1 X-27 Y27
G1 X-4 Y-2
G1 X26 Y-26
G1 X-4 Y-2
G1 X-26 Y27
G1 X-5 Y-1
G1 X26 Y-27
G1 X-5 Y0
G1 X-26 Y26
G1 X-6 Y0
G1 X27 Y-26
G1 X-6 Y0
G1 X-28 Y27
G1 X-16 Y11
G1 X36 Y-36
G1 X-9 Y4
G1 X-23 Y23
G1 X32 Y-27
G1 X32 Y0
G1 X9 Y4
G1 X-50 Y0
G1 X-7 Y4
G1 X64 Y0
G1 X5 Y4
G1 X-74 Y0
G1 X-4 Y4
G1 X9 Y0
G1 X20 Y0
G1 X53 Y0
G1 X3 Y4
G1 X-45 Y0
G1 X8 Y4
G1 X40 Y0
G1 X2 Y4
G1 X-36 Y0
G1 X6 Y4
G1 X32 Y0
G1 X1 Y4
G1 X-29 Y0
G1 X4 Y4
G1 X26 Y0
G1 X0 Y4
G1 X-23 Y0
G1 X3 Y4
G1 X21 Y0
G1 X1 Y4
G1 X-20 Y0
G1 X2 Y4
G1 X17 Y0
G1 X-1 Y4
G1 X-14 Y0
G1 X2 Y4
G1 X12 Y0
G1 X-1 Y4
G1 X-11 Y0
G1 X1 Y4
G1 X9 Y0
G1 X-2 Y4
G1 X-7 Y0
G1 X-1 Y4
G1 X6 Y0
G1 X-3 Y4
G1 X-4 Y0
G1 X12 Y-48
G1 X0 Y32
G1 X-4 Y10
G1 X0 Y-52
G1 X-4 Y-6
G1 X0 Y34
G1 X-4 Y-8
G1 X0 Y-31
G1 X-4 Y-3
G1 X0 Y28
G1 X-4 Y-5
G1 X0 Y-27
G1 X-4 Y-2
G1 X0 Y25
G1 X-4 Y-4
G1 X0 Y-23
G1 X-4 Y-2
G1 X0 Y22
G1 X-4 Y-3
G1 X0 Y-21
G1 X-4 Y-1
G1 X0 Y19
G1 X-4 Y-2
G1 X0 Y-18
G1 X-4 Y0
G1 X0 Y16
G1 X-4 Y-2
G1 X0 Y-14
G1 X-4 Y0
G1 X0 Y12
G1 X-4 Y0
G1 X0 Y-12
G1 X-4 Y1
G1 X0 Y9
G1 X-4 Y0
G1 X0 Y-8
G1 X-4 Y2
G1 X0 Y6
G1 X-4 Y0
G1 X0 Y-4
G1 X-4 Y2
G1 X0 Y4
G1 X-4 Y1
G1 X0 Y-3
