; ME306 CoreXY plotter -- cross-hatched portrait
; Single continuous stroke: no pen lift, every move draws.
; Tone sampled from a photo; five hatch layers at five angles.
; X/Y are relative integers; F is clamped to 1200.
G28
G1 X45 Y0 F1200
G1 X0 Y10
G1 X120 Y0
G1 X0 Y120
G1 X-120 Y0
G1 X0 Y-120
G1 X118 Y0
G1 X2 Y2
G1 X0 Y4
G1 X-6 Y-6
G1 X-3 Y0
G1 X7 Y8
G1 X-2 Y1
G1 X-9 Y-9
G1 X-4 Y0
G1 X10 Y10
G1 X-2 Y2
G1 X-12 Y-12
G1 X-3 Y0
G1 X13 Y13
G1 X-3 Y1
G1 X-14 Y-14
G1 X-4 Y0
G1 X15 Y15
G1 X-2 Y1
G1 X-16 Y-16
G1 X-4 Y0
G1 X17 Y18
G1 X-2 Y1
G1 X-19 Y-19
G1 X-3 Y0
G1 X20 Y21
G1 X-3 Y1
G1 X-21 Y-22
G1 X-4 Y0
G1 X25 Y25
G1 X1 Y4
G1 X-29 Y-29
G1 X-4 Y0
G1 X36 Y36
G1 X0 Y4
G1 X-39 Y-40
G1 X-4 Y0
G1 X44 Y44
G1 X0 Y4
G1 X-48 Y-48
G1 X-4 Y0
G1 X51 Y50
G1 X-2 Y3
G1 X-52 Y-53
G1 X-4 Y0
G1 X56 Y56
G1 X0 Y4
G1 X-60 Y-60
G1 X-3 Y0
G1 X62 Y63
G1 X1 Y4
G1 X-67 Y-67
G1 X-4 Y0
G1 X71 Y71
G1 X1 Y5
G1 X-75 Y-76
G1 X-4 Y0
G1 X20 Y20
G1 X2 Y2
G1 X58 Y58
G1 X-66 Y-62
G1 X-18 Y-18
G1 X85 Y85
G1 X-60 Y-60
G1 X-28 Y-25
G1 X17 Y17
G1 X10 Y11
G1 X61 Y61
G1 X-76 Y-73
G1 X-16 Y-16
G1 X93 Y93
G1 X-62 Y-62
G1 X-35 Y-31
G1 X14 Y14
G1 X20 Y20
G1 X64 Y64
G1 X-89 Y-86
G1 X-9 Y-8
G1 X98 Y98
G1 X-64 Y-65
G1 X-34 Y-29
G1 X3 Y2
G1 X30 Y30
G1 X64 Y65
G1 X0 Y3
G1 X-65 Y-65
G1 X0 Y4
G1 X63 Y63
G1 X-2 Y2
G1 X-61 Y-62
G1 X0 Y5
G1 X59 Y58
G1 X-2 Y1
G1 X-57 Y-56
G1 X1 Y4
G1 X53 Y54
G1 X0 Y3
G1 X-53 Y-53
G1 X-1 Y3
G1 X51 Y51
G1 X-4 Y0
G1 X-48 Y-49
G1 X-1 Y3
G1 X46 Y46
G1 X-4 Y0
G1 X-42 Y-42
G1 X0 Y3
G1 X38 Y39
G1 X-3 Y0
G1 X-35 Y-34
G1 X1 Y4
G1 X30 Y30
G1 X-4 Y0
G1 X-25 Y-26
G1 X15 Y19
G1 X5 Y5
G1 X45 Y-14
G1 X-14 Y14
G1 X-6 Y2
G1 X20 Y-20
G1 X0 Y-3
G1 X-23 Y23
G1 X-4 Y0
G1 X26 Y-26
G1 X-1 Y-3
G1 X-29 Y29
G1 X-3 Y0
G1 X32 Y-33
G1 X0 Y-3
G1 X-36 Y36
G1 X-2 Y-2
G1 X37 Y-37
G1 X0 Y-3
G1 X-40 Y40
G1 X34 Y-39
G1 X5 Y-4
G1 X-42 Y42
G1 X32 Y-32
G1 X10 Y-13
G1 X-4 Y3
G1 X-9 Y9
G1 X-31 Y31
G1 X40 Y-43
G1 X3 Y-4
G1 X-44 Y45
G1 X28 Y-29
G1 X15 Y-18
G1 X-2 Y2
G1 X-6 Y6
G1 X-3 Y2
G1 X-6 Y6
G1 X-28 Y28
G1 X-1 Y-2
G1 X36 Y-36
G1 X2 Y-5
G1 X-39 Y39
G1 X46 Y-50
G1 X2 Y-2
G1 X-50 Y50
G1 X38 Y-38
G1 X14 Y-18
G1 X-4 Y4
G1 X-12 Y12
G1 X-39 Y39
G1 X50 Y-54
G1 X5 Y-5
G1 X-25 Y26
G1 X8 Y-8
G1 X-40 Y39
G1 X29 Y-28
G1 X28 Y-32
G1 X-7 Y6
G1 X-11 Y12
G1 X-6 Y6
G1 X-6 Y5
G1 X-28 Y29
G1 X50 Y-54
G1 X7 Y-7
G1 X-59 Y59
G1 X32 Y-32
G1 X27 Y-31
G1 X-9 Y9
G1 X-16 Y17
G1 X-35 Y35
G1 X82 Y-87
G1 X5 Y-4
G1 X-37 Y37
G1 X8 Y-8
G1 X-19 Y19
G1 X4 Y-4
G1 X-44 Y44
G1 X36 Y-36
G1 X52 Y-56
G1 X-12 Y12
G1 X-18 Y18
G1 X-10 Y10
G1 X-4 Y4
G1 X-7 Y7
G1 X-2 Y2
G1 X-36 Y36
G1 X71 Y-75
G1 X14 Y-14
G1 X-85 Y85
G1 X59 Y-58
G1 X22 Y-27
G1 X-20 Y20
G1 X-3 Y4
G1 X-58 Y58
G1 X0 Y-4
G1 X78 Y-78
G1 X-4 Y0
G1 X-74 Y74
G1 X40 Y-44
G1 X30 Y-30
G1 X-67 Y68
G1 X36 Y-37
G1 X28 Y-31
G1 X-64 Y64
G1 X-1 Y-3
G1 X61 Y-61
G1 X-4 Y0
G1 X-57 Y57
G1 X0 Y-4
G1 X54 Y-53
G1 X-4 Y0
G1 X-50 Y50
G1 X0 Y-4
G1 X46 Y-46
G1 X-3 Y0
G1 X-42 Y42
G1 X0 Y-4
G1 X38 Y-38
G1 X-4 Y0
G1 X-32 Y33
G1 X1 Y-5
G1 X28 Y-28
G1 X-4 Y0
G1 X-22 Y23
G1 X-2 Y-3
G1 X20 Y-20
G1 X-3 Y0
G1 X-19 Y19
G1 X-3 Y-1
G1 X18 Y-18
G1 X-4 Y0
G1 X-17 Y17
G1 X-2 Y-1
G1 X16 Y-16
G1 X-4 Y0
G1 X-16 Y16
G1 X-3 Y-1
G1 X15 Y-15
G1 X-3 Y0
G1 X-14 Y14
G1 X-3 Y-1
G1 X13 Y-13
G1 X-4 Y0
G1 X-12 Y12
G1 X-2 Y-1
G1 X11 Y-11
G1 X-4 Y0
G1 X-10 Y10
G1 X-3 Y-1
G1 X9 Y-9
G1 X-3 Y0
G1 X-9 Y8
G1 X-1 Y-2
G1 X6 Y-6
G1 X-4 Y0
G1 X-2 Y2
G1 X0 Y-1
G1 X120 Y0
G1 X-47 Y2
G1 X-73 Y0
G1 X120 Y0
G1 X-44 Y0
G1 X-76 Y2
G1 X73 Y0
G1 X5 Y0
G1 X42 Y0
G1 X-45 Y2
G1 X-75 Y0
G1 X117 Y0
G1 X-36 Y0
G1 X-76 Y2
G1 X73 Y0
G1 X5 Y0
G1 X29 Y0
G1 X-32 Y3
G1 X-69 Y0
G1 X97 Y0
G1 X-23 Y0
G1 X-67 Y2
G1 X64 Y0
G1 X5 Y0
G1 X15 Y0
G1 X-18 Y2
G1 X-55 Y0
G1 X69 Y0
G1 X-11 Y0
G1 X-52 Y2
G1 X50 Y0
G1 X1 Y0
G1 X9 Y0
G1 X-4 Y2
G1 X-52 Y0
G1 X1 Y3
G1 X48 Y0
G1 X0 Y2
G1 X-49 Y0
G1 X-1 Y2
G1 X30 Y0
G1 X4 Y0
G1 X17 Y0
G1 X-22 Y2
G1 X-29 Y0
G1 X52 Y0
G1 X-16 Y0
G1 X-37 Y2
G1 X28 Y0
G1 X9 Y0
G1 X16 Y0
G1 X-25 Y3
G1 X-28 Y0
G1 X53 Y0
G1 X-19 Y0
G1 X-35 Y2
G1 X56 Y0
G1 X-13 Y2
G1 X-44 Y0
G1 X57 Y0
G1 X-9 Y0
G1 X-48 Y2
G1 X42 Y0
G1 X8 Y0
G1 X7 Y0
G1 X-46 Y2
G1 X-11 Y0
G1 X38 Y0
G1 X-23 Y0
G1 X43 Y0
G1 X-7 Y0
G1 X-51 Y3
G1 X9 Y0
G1 X8 Y0
G1 X19 Y0
G1 X17 Y0
G1 X5 Y0
G1 X-53 Y2
G1 X-5 Y0
G1 X33 Y0
G1 X-15 Y0
G1 X40 Y0
G1 X-4 Y0
G1 X-55 Y2
G1 X5 Y0
G1 X15 Y0
G1 X11 Y0
G1 X25 Y0
G1 X3 Y0
G1 X-55 Y2
G1 X-4 Y0
G1 X30 Y0
G1 X-10 Y0
G1 X-20 Y2
G1 X4 Y0
G1 X18 Y0
G1 X2 Y0
G1 X-20 Y3
G1 X-4 Y0
G1 X0 Y2
G1 X3 Y0
G1 X0 Y2
G1 X-3 Y0
G1 X1 Y2
G1 X2 Y0
G1 X0 Y2
G1 X-2 Y0
G1 X0 Y3
G1 X3 Y0
G1 X0 Y2
G1 X-4 Y0
G1 X58 Y0
G1 X-2 Y0
G1 X-57 Y2
G1 X5 Y0
G1 X52 Y0
G1 X2 Y0
G1 X-54 Y2
G1 X-6 Y0
G1 X60 Y0
G1 X-2 Y0
G1 X-58 Y2
G1 X6 Y0
G1 X51 Y0
G1 X4 Y0
G1 X-54 Y3
G1 X-7 Y0
G1 X61 Y0
G1 X-4 Y0
G1 X-57 Y2
G1 X7 Y0
G1 X50 Y0
G1 X5 Y0
G1 X-55 Y2
G1 X-7 Y0
G1 X61 Y0
G1 X-4 Y0
G1 X-57 Y2
G1 X8 Y0
G1 X48 Y0
G1 X6 Y0
G1 X-54 Y2
G1 X-8 Y0
G1 X63 Y0
G1 X-17 Y0
G1 X-46 Y3
G1 X8 Y0
G1 X35 Y0
G1 X5 Y0
G1 X3 Y0
G1 X12 Y0
G1 X-55 Y2
G1 X-7 Y0
G1 X45 Y0
G1 X-5 Y0
G1 X21 Y0
G1 X-13 Y0
G1 X-48 Y2
G1 X8 Y0
G1 X33 Y0
G1 X21 Y0
G1 X-54 Y2
G1 X-7 Y0
G1 X62 Y0
G1 X-22 Y0
G1 X-38 Y2
G1 X6 Y0
G1 X30 Y0
G1 X24 Y0
G1 X-53 Y3
G1 X-6 Y0
G1 X58 Y0
G1 X-34 Y0
G1 X-22 Y2
G1 X57 Y0
G1 X0 Y2
G1 X-53 Y0
G1 X3 Y2
G1 X50 Y0
G1 X-1 Y2
G1 X-48 Y0
G1 X1 Y3
G1 X44 Y0
G1 X-3 Y2
G1 X-40 Y0
G1 X2 Y2
G1 X33 Y0
G1 X-4 Y2
G1 X-26 Y0
G1 X6 Y2
G1 X16 Y0
G1 X3 Y-44
G1 X-7 Y0
G1 X2 Y-2
G1 X5 Y0
G1 X-1 Y-2
G1 X-6 Y0
G1 X-1 Y-2
G1 X9 Y0
G1 X-1 Y-2
G1 X-7 Y0
G1 X-14 Y8
G1 X-14 Y0
G1 X-2 Y-2
G1 X18 Y0
G1 X0 Y-2
G1 X-13 Y0
G1 X-3 Y-2
G1 X16 Y0
G1 X0 Y-2
G1 X-18 Y0
G1 X5 Y-3
G1 X12 Y0
G1 X-3 Y-2
G1 X-5 Y0
G1 X-2 Y4
G1 X0 Y4
G1 X2 Y0
G1 X0 Y-4
G1 X2 Y2
G1 X0 Y2
G1 X3 Y-1
G1 X0 Y-2
G1 X19 Y0
G1 X0 Y3
G1 X3 Y0
G1 X0 Y-4
G1 X17 Y29
G1 X0 Y2
G1 X-2 Y7
G1 X0 Y-20
G1 X-2 Y-10
G1 X0 Y30
G1 X-2 Y2
G1 X0 Y-20
G1 X-3 Y2
G1 X0 Y20
G1 X0 Y2
G1 X0 Y3
G1 X-2 Y0
G1 X0 Y-23
G1 X-2 Y2
G1 X0 Y22
G1 X-2 Y0
G1 X0 Y-20
G1 X-2 Y2
G1 X0 Y20
G1 X-3 Y1
G1 X0 Y-26
G1 X-2 Y9
G1 X0 Y19
G1 X-2 Y1
G1 X0 Y-19
G1 X-2 Y0
G1 X0 Y19
G1 X-2 Y0
G1 X0 Y-19
G1 X-3 Y0
G1 X0 Y19
G1 X-2 Y0
G1 X0 Y-19
G1 X-2 Y1
G1 X0 Y17
G1 X-2 Y-1
G1 X0 Y-15
G1 X-2 Y0
G1 X0 Y14
G1 X-3 Y-1
G1 X0 Y-13
G1 X-2 Y0
G1 X0 Y12
G1 X-2 Y-3
G1 X0 Y-10
G1 X-2 Y0
G1 X0 Y4
G1 X-2 Y-2
G1 X0 Y-2
G1 X-3 Y-1
G1 X0 Y1
G1 X-2 Y0
G1 X0 Y-6
G1 X-2 Y-17
G1 X0 Y21
G1 X-2 Y-4
G1 X0 Y-30
G1 X-2 Y6
G1 X0 Y17
G1 X-33 Y-82
G1 X0 Y-7
G1 X2 Y0
G1 X0 Y8
G1 X2 Y1
G1 X0 Y-9
G1 X2 Y0
G1 X0 Y9
G1 X2 Y1
G1 X0 Y-10
G1 X3 Y0
G1 X0 Y11
G1 X2 Y1
G1 X0 Y-12
G1 X2 Y0
G1 X0 Y13
G1 X2 Y0
G1 X0 Y-13
G1 X2 Y0
G1 X0 Y14
G1 X3 Y1
G1 X0 Y-15
G1 X2 Y0
G1 X0 Y15
G1 X2 Y0
G1 X0 Y-15
G1 X2 Y0
G1 X0 Y16
G1 X2 Y1
G1 X0 Y-17
G1 X3 Y0
G1 X0 Y17
G1 X2 Y39
G1 X0 Y-16
G1 X0 Y-22
G1 X0 Y-18
G1 X2 Y31
G1 X0 Y17
G1 X0 Y-48
G1 X0 Y19
G1 X2 Y24
G1 X0 Y-20
G1 X0 Y-1
G1 X0 Y-22
G1 X2 Y16
G1 X0 Y25
G1 X0 Y-41
G1 X0 Y8
G1 X3 Y30
G1 X0 Y-27
G1 X0 Y-8
G1 X0 Y-3
G1 X2 Y11
G1 X0 Y26
G1 X0 Y-37
G1 X0 Y6
G1 X2 Y33
G1 X0 Y-30
G1 X2 Y-2
G1 X0 Y34
G1 X2 Y1
G1 X0 Y-36
G1 X3 Y28
G1 X0 Y9
G1 X0 Y-38
G1 X0 Y24
G1 X2 Y16
G1 X0 Y-11
G1 X0 Y-6
G1 X0 Y-24
G1 X2 Y31
G1 X0 Y15
G1 X0 Y-46
G1 X0 Y26
G1 X2 Y19
G1 X0 Y-13
G1 X0 Y-7
G1 X0 Y-25
G1 X2 Y35
G1 X0 Y7
G1 X0 Y-41
G1 X0 Y23
G1 X3 Y17
G1 X0 Y-7
G1 X0 Y-17
G1 X0 Y-16
G1 X2 Y31
G1 X0 Y8
G1 X0 Y-38
G1 X0 Y16
G1 X2 Y20
G1 X0 Y-7
G1 X0 Y-11
G1 X0 Y-17
G1 X2 Y28
G1 X0 Y5
G1 X0 Y-32
G1 X0 Y19
G1 X2 Y12
G1 X0 Y-30
G1 X3 Y2
G1 X0 Y26
G1 X0 Y-37
G1 X0 Y3
G1 X2 Y27
G1 X0 Y-17
G1 X0 Y-8
G1 X0 Y-5
G1 X2 Y16
G1 X0 Y17
G1 X0 Y-33
G1 X0 Y7
G1 X2 Y29
G1 X0 Y-17
G1 X0 Y-9
G1 X0 Y-10
G1 X2 Y20
G1 X0 Y20
G1 X0 Y-40
G1 X0 Y13
G1 X3 Y30
G1 X0 Y-15
G1 X0 Y-7
G1 X0 Y-21
G1 X2 Y0
G1 X0 Y20
G1 X2 Y-1
G1 X0 Y-19
G1 X2 Y0
G1 X0 Y17
G1 X2 Y-1
G1 X0 Y-16
G1 X3 Y0
G1 X0 Y14
G1 X2 Y-1
G1 X0 Y-13
G1 X2 Y0
G1 X0 Y13
G1 X2 Y-1
G1 X0 Y-12
G1 X2 Y0
G1 X0 Y11
G1 X3 Y-2
G1 X0 Y-9
G1 X2 Y0
G1 X0 Y8
G1 X2 Y-1
G1 X0 Y-7
G1 X2 Y0
G1 X0 Y6
G1 X2 Y0
G1 X0 Y-6
G1 X-2 Y0
G1 X3 Y3
G1 X0 Y2
G1 X-5 Y-5
G1 X-3 Y0
G1 X5 Y5
G1 X-2 Y1
G1 X-5 Y-6
G1 X-3 Y0
G1 X7 Y7
G1 X-2 Y1
G1 X-7 Y-8
G1 X-3 Y0
G1 X8 Y8
G1 X-1 Y1
G1 X-10 Y-9
G1 X-2 Y0
G1 X10 Y10
G1 X-2 Y1
G1 X-11 Y-11
G1 X-2 Y0
G1 X11 Y12
G1 X-1 Y1
G1 X-13 Y-13
G1 X-2 Y0
G1 X13 Y13
G1 X-2 Y1
G1 X-14 Y-14
G1 X-2 Y0
G1 X15 Y15
G1 X-2 Y1
G1 X-16 Y-16
G1 X2 Y4
G1 X13 Y13
G1 X-2 Y2
G1 X-4 Y-5
G1 X0 Y3
G1 X2 Y2
G1 X-1 Y1
G1 X-1 Y-1
G1 X-16 Y-11
G1 X11 Y12
G1 X2 Y4
G1 X-18 Y-18
G1 X-3 Y0
G1 X19 Y18
G1 X-4 Y-1
G1 X-17 Y-17
G1 X-3 Y-1
G1 X18 Y19
G1 X0 Y2
G1 X-20 Y-20
G1 X-2 Y1
G1 X10 Y10
G1 X8 Y8
G1 X1 Y1
G1 X-11 Y-9
G1 X-10 Y-10
G1 X-1 Y1
G1 X10 Y10
G1 X-20 Y-17
G1 X-1 Y-1
G1 X19 Y20
G1 X-9 Y-10
G1 X-13 Y-10
G1 X3 Y3
G1 X8 Y8
G1 X10 Y10
G1 X-18 Y-16
G1 X-5 Y-5
G1 X21 Y22
G1 X-9 Y-9
G1 X-15 Y-13
G1 X7 Y7
G1 X7 Y7
G1 X9 Y9
G1 X-16 Y-14
G1 X-9 Y-9
G1 X25 Y25
G1 X-11 Y-10
G1 X-17 Y-15
G1 X12 Y12
G1 X4 Y4
G1 X11 Y11
G1 X-15 Y-13
G1 X-14 Y-14
G1 X27 Y28
G1 X-10 Y-10
G1 X-20 Y-18
G1 X17 Y17
G1 X1 Y1
G1 X11 Y12
G1 X0 Y1
G1 X-32 Y-31
G1 X-2 Y0
G1 X17 Y17
G1 X6 Y7
G1 X10 Y10
G1 X-19 Y-18
G1 X-17 Y-16
G1 X33 Y32
G1 X-7 Y-7
G1 X-28 Y-25
G1 X14 Y14
G1 X13 Y13
G1 X5 Y6
G1 X-20 Y-18
G1 X-15 Y-15
G1 X34 Y34
G1 X-4 Y-4
G1 X-32 Y-30
G1 X13 Y14
G1 X19 Y18
G1 X3 Y3
G1 X-25 Y-22
G1 X-13 Y-13
G1 X37 Y37
G1 X-2 Y-2
G1 X-37 Y-35
G1 X11 Y11
G1 X-4 Y-1
G1 X-10 Y-10
G1 X0 Y3
G1 X6 Y5
G1 X50 Y107
G1 X-1 Y-2
G1 X-1 Y-1
G1 X-2 Y-1
G1 X5 Y2
G1 X2 Y2
G1 X-9 Y-9
G1 X4 Y4
G1 X9 Y7
G1 X-12 Y-12
G1 X3 Y0
G1 X11 Y11
G1 X3 Y0
G1 X-12 Y-12
G1 X2 Y0
G1 X12 Y12
G1 X2 Y-1
G1 X-6 Y-6
G1 X-2 Y-2
G1 X-3 Y-3
G1 X6 Y3
G1 X6 Y7
G1 X-10 Y-11
G1 X2 Y3
G1 X9 Y6
G1 X-9 Y-9
G1 X2 Y0
G1 X8 Y8
G1 X2 Y-1
G1 X-7 Y-7
G1 X1 Y-1
G1 X7 Y7
G1 X2 Y-1
G1 X-6 Y-6
G1 X3 Y1
G1 X4 Y4
G1 X2 Y-1
G1 X-4 Y-4
G1 X0 Y-3
G1 X5 Y6
G1 X1 Y-2
G1 X-4 Y-4
G1 X2 Y-1
G1 X3 Y3
G1 X2 Y0
G1 X-5 Y-5
G1 X1 Y-1
G1 X6 Y6
G1 X0 Y-3
G1 X-4 Y-4
G1 X2 Y-1
G1 X2 Y3
G1 X2 Y-1
G1 X-2 Y-2
