; Heart from centre - ME306 CoreXY plotter
; Generated by tools/gen_heart.py - do not hand-edit.
; scale=2.5 segments=40 feed=600 mm/min
; centred on (100, 100) mm
; outline bounding box 80 x 72 mm
;
; All G1 moves are RELATIVE (see G1::beginMove).
;
; Home first: seeks LEFT then BOTTOM and zeroes the origin there.
G28
;
; Travel from the home corner out to the centre. The firmware has
; no pen lift, so this leaves a visible lead-in line.
G1 X100 Y100 F600
; --- at centre: draw the heart from here ---
G1 X0 Y-36
G1 X-2 Y6
G1 X-4 Y5
G1 X-5 Y4
G1 X-5 Y5
G1 X-4 Y4
G1 X-5 Y4
G1 X-5 Y4
G1 X-4 Y5
G1 X-3 Y6
G1 X-3 Y6
G1 X0 Y6
G1 X2 Y6
G1 X4 Y5
G1 X5 Y4
G1 X6 Y2
G1 X6 Y0
G1 X6 Y-2
G1 X5 Y-4
G1 X4 Y-5
G1 X2 Y-6
G1 X2 Y6
G1 X4 Y5
G1 X5 Y4
G1 X6 Y2
G1 X6 Y0
G1 X6 Y-2
G1 X5 Y-4
G1 X4 Y-5
G1 X2 Y-6
G1 X0 Y-6
G1 X-3 Y-6
G1 X-3 Y-6
G1 X-4 Y-5
G1 X-5 Y-4
G1 X-5 Y-4
G1 X-4 Y-4
G1 X-5 Y-5
G1 X-5 Y-4
G1 X-4 Y-5
G1 X-2 Y-6
G1 X0 Y36
; Back at the centre.
